start=new Date('2022-03-06T00:00:00.000Z').valueOf();
sats=[{"INCLINATION":"53.2160","MEAN_ANOMALY":"151.9110","EPOCH":"2022-03-05T22:00:01.999584","EPHEMERIS_TYPE":"0","TLE_LINE2":"2 51112  53.2160  47.4825 0003436   9.9936 151.9110 15.73185882  3707","RA_OF_ASC_NODE":"47.4825","MEAN_MOTION_DDOT":"0.0000000000000","FILE":"3346512","REF_FRAME":"TEME","LAUNCH_DATE":"2022-01-19","NORAD_CAT_ID":"51112","RCS_SIZE":"LARGE","OBJECT_NAME":"STARLINK-3374","MEAN_MOTION_DOT":"0.00030024","PERIAPSIS":"347.489","DECAY_DATE":null,"ARG_OF_PERICENTER":"9.9936","MEAN_MOTION":"15.73185882","CLASSIFICATION_TYPE":"U","GP_ID":"198021648","APOAPSIS":"352.112","COUNTRY_CODE":"US","TLE_LINE1":"1 51112U 22005J   22064.91668981  .00030024  00000-0  21767-3 0  9996","ELEMENT_SET_NO":"999","OBJECT_TYPE":"PAYLOAD","PERIOD":"91.534","SITE":"AFETR","SEMIMAJOR_AXIS":"6727.935","BSTAR":"0.00021767000000","MEAN_ELEMENT_THEORY":"SGP4","REV_AT_EPOCH":"370","CENTER_NAME":"EARTH","TIME_SYSTEM":"UTC","ECCENTRICITY":"0.00034360","OBJECT_ID":"2022-005J"},{"CENTER_NAME":"EARTH","TIME_SYSTEM":"UTC","REV_AT_EPOCH":"370","BSTAR":"-0.00022168000000","MEAN_ELEMENT_THEORY":"SGP4","OBJECT_ID":"2022-005K","ECCENTRICITY":"0.00030660","ELEMENT_SET_NO":"999","TLE_LINE1":"1 51113U 22005K   22064.91668981 -.00031650  00000-0 -22168-3 0  9991","SITE":"AFETR","SEMIMAJOR_AXIS":"6727.842","PERIOD":"91.532","OBJECT_TYPE":"PAYLOAD","PERIAPSIS":"347.645","RCS_SIZE":"LARGE","MEAN_MOTION_DOT":"-0.00031650","OBJECT_NAME":"STARLINK-3372","APOAPSIS":"351.770","GP_ID":"198021013","COUNTRY_CODE":"US","CLASSIFICATION_TYPE":"U","ARG_OF_PERICENTER":"13.7635","MEAN_MOTION":"15.73218549","DECAY_DATE":null,"EPHEMERIS_TYPE":"0","TLE_LINE2":"2 51113  53.2167  47.4799 0003066  13.7635 150.0185 15.73218549  3702","RA_OF_ASC_NODE":"47.4799","EPOCH":"2022-03-05T22:00:01.999584","INCLINATION":"53.2167","MEAN_ANOMALY":"150.0185","LAUNCH_DATE":"2022-01-19","NORAD_CAT_ID":"51113","FILE":"3346512","REF_FRAME":"TEME","MEAN_MOTION_DDOT":"0.0000000000000"},{"ELEMENT_SET_NO":"999","TLE_LINE1":"1 51114U 22005L   22064.91668981 -.00031746  00000-0 -22228-3 0  9995","SITE":"AFETR","SEMIMAJOR_AXIS":"6727.825","PERIOD":"91.532","OBJECT_TYPE":"PAYLOAD","CENTER_NAME":"EARTH","TIME_SYSTEM":"UTC","BSTAR":"-0.00022228000000","MEAN_ELEMENT_THEORY":"SGP4","REV_AT_EPOCH":"370","OBJECT_ID":"2022-005L","ECCENTRICITY":"0.00034970","RA_OF_ASC_NODE":"47.4869","TLE_LINE2":"2 51114  53.2167  47.4869 0003497   9.7234 150.9206 15.73224750  3703","EPHEMERIS_TYPE":"0","EPOCH":"2022-03-05T22:00:01.999584","MEAN_ANOMALY":"150.9206","INCLINATION":"53.2167","NORAD_CAT_ID":"51114","LAUNCH_DATE":"2022-01-19","FILE":"3346512","REF_FRAME":"TEME","MEAN_MOTION_DDOT":"0.0000000000000","PERIAPSIS":"347.337","OBJECT_NAME":"STARLINK-3375","RCS_SIZE":"LARGE","MEAN_MOTION_DOT":"-0.00031746","GP_ID":"198021542","COUNTRY_CODE":"US","APOAPSIS":"352.042","CLASSIFICATION_TYPE":"U","MEAN_MOTION":"15.73224750","ARG_OF_PERICENTER":"9.7234","DECAY_DATE":null},{"MEAN_MOTION_DDOT":"0.0000000000000","FILE":"3346512","REF_FRAME":"TEME","LAUNCH_DATE":"2022-01-19","NORAD_CAT_ID":"51115","MEAN_ANOMALY":"157.0738","INCLINATION":"53.2166","EPOCH":"2022-03-05T22:00:01.999584","RA_OF_ASC_NODE":"47.4766","TLE_LINE2":"2 51115  53.2166  47.4766 0003279   7.9654 157.0738 15.73234027  3709","EPHEMERIS_TYPE":"0","DECAY_DATE":null,"ARG_OF_PERICENTER":"7.9654","MEAN_MOTION":"15.73234027","CLASSIFICATION_TYPE":"U","GP_ID":"198021436","APOAPSIS":"351.869","COUNTRY_CODE":"US","OBJECT_NAME":"STARLINK-3397","RCS_SIZE":"LARGE","MEAN_MOTION_DOT":"-0.00030129","PERIAPSIS":"347.457","OBJECT_TYPE":"PAYLOAD","PERIOD":"91.531","SITE":"AFETR","SEMIMAJOR_AXIS":"6727.798","TLE_LINE1":"1 51115U 22005M   22064.91668981 -.00030129  00000-0 -21062-3 0  9995","ELEMENT_SET_NO":"999","ECCENTRICITY":"0.00032790","OBJECT_ID":"2022-005M","REV_AT_EPOCH":"370","BSTAR":"-0.00021062000000","MEAN_ELEMENT_THEORY":"SGP4","CENTER_NAME":"EARTH","TIME_SYSTEM":"UTC"},{"ELEMENT_SET_NO":"999","TLE_LINE1":"1 51116U 22005N   22064.91668981  .00071099  00000-0  50721-3 0  9999","SITE":"AFETR","SEMIMAJOR_AXIS":"6727.971","PERIOD":"91.535","OBJECT_TYPE":"PAYLOAD","CENTER_NAME":"EARTH","TIME_SYSTEM":"UTC","BSTAR":"0.00050721000000","REV_AT_EPOCH":"853","MEAN_ELEMENT_THEORY":"SGP4","ECCENTRICITY":"0.00031430","OBJECT_ID":"2022-005N","RA_OF_ASC_NODE":"47.4833","TLE_LINE2":"2 51116  53.2168  47.4833 0003143  13.1355 149.4051 15.73173511  8533","EPHEMERIS_TYPE":"0","EPOCH":"2022-03-05T22:00:01.999584","INCLINATION":"53.2168","MEAN_ANOMALY":"149.4051","LAUNCH_DATE":"2022-01-19","NORAD_CAT_ID":"51116","FILE":"3346258","REF_FRAME":"TEME","MEAN_MOTION_DDOT":"0.0000000000000","PERIAPSIS":"347.721","RCS_SIZE":"LARGE","OBJECT_NAME":"STARLINK-3243","MEAN_MOTION_DOT":"0.00071099","GP_ID":"197990787","APOAPSIS":"351.950","COUNTRY_CODE":"US","CLASSIFICATION_TYPE":"U","MEAN_MOTION":"15.73173511","ARG_OF_PERICENTER":"13.1355","DECAY_DATE":null},{"OBJECT_TYPE":"PAYLOAD","PERIOD":"91.534","SITE":"AFETR","SEMIMAJOR_AXIS":"6727.920","TLE_LINE1":"1 51117U 22005P   22064.91668981  .00074050  00000-0  52748-3 0  9991","ELEMENT_SET_NO":"999","OBJECT_ID":"2022-005P","ECCENTRICITY":"0.00033350","REV_AT_EPOCH":"853","BSTAR":"0.00052748000000","MEAN_ELEMENT_THEORY":"SGP4","CENTER_NAME":"EARTH","TIME_SYSTEM":"UTC","MEAN_MOTION_DDOT":"0.0000000000000","REF_FRAME":"TEME","FILE":"3346260","LAUNCH_DATE":"2022-01-19","NORAD_CAT_ID":"51117","MEAN_ANOMALY":"160.6884","INCLINATION":"53.2163","EPOCH":"2022-03-05T22:00:01.999584","TLE_LINE2":"2 51117  53.2163  47.4716 0003335   6.8837 160.6884 15.73191175  8531","RA_OF_ASC_NODE":"47.4716","EPHEMERIS_TYPE":"0","DECAY_DATE":null,"ARG_OF_PERICENTER":"6.8837","MEAN_MOTION":"15.73191175","CLASSIFICATION_TYPE":"U","APOAPSIS":"352.029","GP_ID":"197990319","COUNTRY_CODE":"US","OBJECT_NAME":"STARLINK-3391","RCS_SIZE":"LARGE","MEAN_MOTION_DOT":"0.00074050","PERIAPSIS":"347.542"},{"OBJECT_NAME":"STARLINK-3394","RCS_SIZE":"LARGE","MEAN_MOTION_DOT":"-0.00022121","PERIAPSIS":"347.228","MEAN_MOTION":"15.73237569","ARG_OF_PERICENTER":"7.3961","DECAY_DATE":null,"GP_ID":"198021225","COUNTRY_CODE":"US","APOAPSIS":"352.078","CLASSIFICATION_TYPE":"U","INCLINATION":"53.2154","MEAN_ANOMALY":"157.0191","RA_OF_ASC_NODE":"47.4783","TLE_LINE2":"2 51118  53.2154  47.4783 0003605   7.3961 157.0191 15.73237569  3703","EPHEMERIS_TYPE":"0","EPOCH":"2022-03-05T22:00:01.999584","MEAN_MOTION_DDOT":"0.0000000000000","NORAD_CAT_ID":"51118","LAUNCH_DATE":"2022-01-19","REF_FRAME":"TEME","FILE":"3346512","TIME_SYSTEM":"UTC","CENTER_NAME":"EARTH","BSTAR":"-0.00015327000000","REV_AT_EPOCH":"370","MEAN_ELEMENT_THEORY":"SGP4","OBJECT_ID":"2022-005Q","ECCENTRICITY":"0.00036050","TLE_LINE1":"1 51118U 22005Q   22064.91668981 -.00022121  00000-0 -15327-3 0  9998","ELEMENT_SET_NO":"999","PERIOD":"91.531","OBJECT_TYPE":"PAYLOAD","SEMIMAJOR_AXIS":"6727.788","SITE":"AFETR"},{"INCLINATION":"53.2174","MEAN_ANOMALY":"156.1347","EPOCH":"2022-03-05T22:00:01.999584","EPHEMERIS_TYPE":"0","TLE_LINE2":"2 51119  53.2174  47.4713 0003106  12.0846 156.1347 15.73204906  3702","RA_OF_ASC_NODE":"47.4713","MEAN_MOTION_DDOT":"0.0000000000000","REF_FRAME":"TEME","FILE":"3346512","NORAD_CAT_ID":"51119","LAUNCH_DATE":"2022-01-19","RCS_SIZE":"LARGE","MEAN_MOTION_DOT":"-0.00023108","OBJECT_NAME":"STARLINK-3390","PERIAPSIS":"347.657","DECAY_DATE":null,"ARG_OF_PERICENTER":"12.0846","MEAN_MOTION":"15.73204906","CLASSIFICATION_TYPE":"U","GP_ID":"198021119","APOAPSIS":"351.836","COUNTRY_CODE":"US","TLE_LINE1":"1 51119U 22005R   22064.91668981 -.00023108  00000-0 -16058-3 0  9997","ELEMENT_SET_NO":"999","OBJECT_TYPE":"PAYLOAD","PERIOD":"91.533","SITE":"AFETR","SEMIMAJOR_AXIS":"6727.881","MEAN_ELEMENT_THEORY":"SGP4","BSTAR":"-0.00016058000000","REV_AT_EPOCH":"370","CENTER_NAME":"EARTH","TIME_SYSTEM":"UTC","OBJECT_ID":"2022-005R","ECCENTRICITY":"0.00031060"},{"EPOCH":"2022-03-05T22:00:01.999584","TLE_LINE2":"2 51120  53.2164  47.4679 0003191   7.8211 161.6230 15.73233971  3702","RA_OF_ASC_NODE":"47.4679","EPHEMERIS_TYPE":"0","MEAN_ANOMALY":"161.6230","INCLINATION":"53.2164","REF_FRAME":"TEME","FILE":"3346512","NORAD_CAT_ID":"51120","LAUNCH_DATE":"2022-01-19","MEAN_MOTION_DDOT":"0.0000000000000","PERIAPSIS":"347.516","RCS_SIZE":"LARGE","MEAN_MOTION_DOT":"-0.00021417","OBJECT_NAME":"STARLINK-3398","CLASSIFICATION_TYPE":"U","GP_ID":"198021649","COUNTRY_CODE":"US","APOAPSIS":"351.810","DECAY_DATE":null,"ARG_OF_PERICENTER":"7.8211","MEAN_MOTION":"15.73233971","ELEMENT_SET_NO":"999","TLE_LINE1":"1 51120U 22005S   22064.91668981 -.00021417  00000-0 -14828-3 0  9993","SITE":"AFETR","SEMIMAJOR_AXIS":"6727.798","OBJECT_TYPE":"PAYLOAD","PERIOD":"91.531","REV_AT_EPOCH":"370","BSTAR":"-0.00014828000000","MEAN_ELEMENT_THEORY":"SGP4","CENTER_NAME":"EARTH","TIME_SYSTEM":"UTC","ECCENTRICITY":"0.00031910","OBJECT_ID":"2022-005S"},{"PERIAPSIS":"347.273","RCS_SIZE":"LARGE","OBJECT_NAME":"STARLINK-3399","MEAN_MOTION_DOT":"-0.00017408","APOAPSIS":"352.184","GP_ID":"198021014","COUNTRY_CODE":"US","CLASSIFICATION_TYPE":"U","ARG_OF_PERICENTER":"7.2723","MEAN_MOTION":"15.73211107","DECAY_DATE":null,"TLE_LINE2":"2 51121  53.2164  47.4727 0003650   7.2723 159.6887 15.73211107  3701","RA_OF_ASC_NODE":"47.4727","EPHEMERIS_TYPE":"0","EPOCH":"2022-03-05T22:00:01.999584","INCLINATION":"53.2164","MEAN_ANOMALY":"159.6887","NORAD_CAT_ID":"51121","LAUNCH_DATE":"2022-01-19","REF_FRAME":"TEME","FILE":"3346512","MEAN_MOTION_DDOT":"0.0000000000000","CENTER_NAME":"EARTH","TIME_SYSTEM":"UTC","MEAN_ELEMENT_THEORY":"SGP4","BSTAR":"-0.00011974000000","REV_AT_EPOCH":"370","ECCENTRICITY":"0.00036500","OBJECT_ID":"2022-005T","ELEMENT_SET_NO":"999","TLE_LINE1":"1 51121U 22005T   22064.91668981 -.00017408  00000-0 -11974-3 0  9998","SITE":"AFETR","SEMIMAJOR_AXIS":"6727.864","PERIOD":"91.533","OBJECT_TYPE":"PAYLOAD"}];
